<?xml version="1.0" encoding="UTF-8"?>
<kml xmlns="http://www.opengis.net/kml/2.2">
  <Document>
    <name>Untitled map</name>
    <description/>
    <Style id="icon-1899-0288D1-nodesc-normal">
      <IconStyle>
        <color>ffd18802</color>
        <scale>1</scale>
        <Icon>
          <href>https://www.gstatic.com/mapspro/images/stock/503-wht-blank_maps.png</href>
        </Icon>
        <hotSpot x="32" xunits="pixels" y="64" yunits="insetPixels"/>
      </IconStyle>
      <LabelStyle>
        <scale>0</scale>
      </LabelStyle>
      <BalloonStyle>
        <text><![CDATA[<h3>$[name]</h3>]]></text>
      </BalloonStyle>
    </Style>
    <Style id="icon-1899-0288D1-nodesc-highlight">
      <IconStyle>
        <color>ffd18802</color>
        <scale>1</scale>
        <Icon>
          <href>https://www.gstatic.com/mapspro/images/stock/503-wht-blank_maps.png</href>
        </Icon>
        <hotSpot x="32" xunits="pixels" y="64" yunits="insetPixels"/>
      </IconStyle>
      <LabelStyle>
        <scale>1</scale>
      </LabelStyle>
      <BalloonStyle>
        <text><![CDATA[<h3>$[name]</h3>]]></text>
      </BalloonStyle>
    </Style>
    <StyleMap id="icon-1899-0288D1-nodesc">
      <Pair>
        <key>normal</key>
        <styleUrl>#icon-1899-0288D1-nodesc-normal</styleUrl>
      </Pair>
      <Pair>
        <key>highlight</key>
        <styleUrl>#icon-1899-0288D1-nodesc-highlight</styleUrl>
      </Pair>
    </StyleMap>
    <Style id="icon-1899-1A237E-nodesc-normal">
      <IconStyle>
        <color>ff7e231a</color>
        <scale>1</scale>
        <Icon>
          <href>https://www.gstatic.com/mapspro/images/stock/503-wht-blank_maps.png</href>
        </Icon>
        <hotSpot x="32" xunits="pixels" y="64" yunits="insetPixels"/>
      </IconStyle>
      <LabelStyle>
        <scale>0</scale>
      </LabelStyle>
      <BalloonStyle>
        <text><![CDATA[<h3>$[name]</h3>]]></text>
      </BalloonStyle>
    </Style>
    <Style id="icon-1899-1A237E-nodesc-highlight">
      <IconStyle>
        <color>ff7e231a</color>
        <scale>1</scale>
        <Icon>
          <href>https://www.gstatic.com/mapspro/images/stock/503-wht-blank_maps.png</href>
        </Icon>
        <hotSpot x="32" xunits="pixels" y="64" yunits="insetPixels"/>
      </IconStyle>
      <LabelStyle>
        <scale>1</scale>
      </LabelStyle>
      <BalloonStyle>
        <text><![CDATA[<h3>$[name]</h3>]]></text>
      </BalloonStyle>
    </Style>
    <StyleMap id="icon-1899-1A237E-nodesc">
      <Pair>
        <key>normal</key>
        <styleUrl>#icon-1899-1A237E-nodesc-normal</styleUrl>
      </Pair>
      <Pair>
        <key>highlight</key>
        <styleUrl>#icon-1899-1A237E-nodesc-highlight</styleUrl>
      </Pair>
    </StyleMap>
    <Style id="poly-000000-1200-77-nodesc-normal">
      <LineStyle>
        <color>ff000000</color>
        <width>1.2</width>
      </LineStyle>
      <PolyStyle>
        <color>4d000000</color>
        <fill>1</fill>
        <outline>1</outline>
      </PolyStyle>
      <BalloonStyle>
        <text><![CDATA[<h3>$[name]</h3>]]></text>
      </BalloonStyle>
    </Style>
    <Style id="poly-000000-1200-77-nodesc-highlight">
      <LineStyle>
        <color>ff000000</color>
        <width>1.8</width>
      </LineStyle>
      <PolyStyle>
        <color>4d000000</color>
        <fill>1</fill>
        <outline>1</outline>
      </PolyStyle>
      <BalloonStyle>
        <text><![CDATA[<h3>$[name]</h3>]]></text>
      </BalloonStyle>
    </Style>
    <StyleMap id="poly-000000-1200-77-nodesc">
      <Pair>
        <key>normal</key>
        <styleUrl>#poly-000000-1200-77-nodesc-normal</styleUrl>
      </Pair>
      <Pair>
        <key>highlight</key>
        <styleUrl>#poly-000000-1200-77-nodesc-highlight</styleUrl>
      </Pair>
    </StyleMap>
    <Style id="poly-000000-2000-77-nodesc-normal">
      <LineStyle>
        <color>ff000000</color>
        <width>2</width>
      </LineStyle>
      <PolyStyle>
        <color>4d000000</color>
        <fill>1</fill>
        <outline>1</outline>
      </PolyStyle>
      <BalloonStyle>
        <text><![CDATA[<h3>$[name]</h3>]]></text>
      </BalloonStyle>
    </Style>
    <Style id="poly-000000-2000-77-nodesc-highlight">
      <LineStyle>
        <color>ff000000</color>
        <width>3</width>
      </LineStyle>
      <PolyStyle>
        <color>4d000000</color>
        <fill>1</fill>
        <outline>1</outline>
      </PolyStyle>
      <BalloonStyle>
        <text><![CDATA[<h3>$[name]</h3>]]></text>
      </BalloonStyle>
    </Style>
    <StyleMap id="poly-000000-2000-77-nodesc">
      <Pair>
        <key>normal</key>
        <styleUrl>#poly-000000-2000-77-nodesc-normal</styleUrl>
      </Pair>
      <Pair>
        <key>highlight</key>
        <styleUrl>#poly-000000-2000-77-nodesc-highlight</styleUrl>
      </Pair>
    </StyleMap>
    <Style id="poly-3949AB-2000-77-nodesc-normal">
      <LineStyle>
        <color>ffab4939</color>
        <width>2</width>
      </LineStyle>
      <PolyStyle>
        <color>4dab4939</color>
        <fill>1</fill>
        <outline>1</outline>
      </PolyStyle>
      <BalloonStyle>
        <text><![CDATA[<h3>$[name]</h3>]]></text>
      </BalloonStyle>
    </Style>
    <Style id="poly-3949AB-2000-77-nodesc-highlight">
      <LineStyle>
        <color>ffab4939</color>
        <width>3</width>
      </LineStyle>
      <PolyStyle>
        <color>4dab4939</color>
        <fill>1</fill>
        <outline>1</outline>
      </PolyStyle>
      <BalloonStyle>
        <text><![CDATA[<h3>$[name]</h3>]]></text>
      </BalloonStyle>
    </Style>
    <StyleMap id="poly-3949AB-2000-77-nodesc">
      <Pair>
        <key>normal</key>
        <styleUrl>#poly-3949AB-2000-77-nodesc-normal</styleUrl>
      </Pair>
      <Pair>
        <key>highlight</key>
        <styleUrl>#poly-3949AB-2000-77-nodesc-highlight</styleUrl>
      </Pair>
    </StyleMap>
    <Style id="poly-7CB342-2000-77-nodesc-normal">
      <LineStyle>
        <color>ff42b37c</color>
        <width>2</width>
      </LineStyle>
      <PolyStyle>
        <color>4d42b37c</color>
        <fill>1</fill>
        <outline>1</outline>
      </PolyStyle>
      <BalloonStyle>
        <text><![CDATA[<h3>$[name]</h3>]]></text>
      </BalloonStyle>
    </Style>
    <Style id="poly-7CB342-2000-77-nodesc-highlight">
      <LineStyle>
        <color>ff42b37c</color>
        <width>3</width>
      </LineStyle>
      <PolyStyle>
        <color>4d42b37c</color>
        <fill>1</fill>
        <outline>1</outline>
      </PolyStyle>
      <BalloonStyle>
        <text><![CDATA[<h3>$[name]</h3>]]></text>
      </BalloonStyle>
    </Style>
    <StyleMap id="poly-7CB342-2000-77-nodesc">
      <Pair>
        <key>normal</key>
        <styleUrl>#poly-7CB342-2000-77-nodesc-normal</styleUrl>
      </Pair>
      <Pair>
        <key>highlight</key>
        <styleUrl>#poly-7CB342-2000-77-nodesc-highlight</styleUrl>
      </Pair>
    </StyleMap>
    <Style id="poly-9C27B0-2000-77-normal">
      <LineStyle>
        <color>ffb0279c</color>
        <width>2</width>
      </LineStyle>
      <PolyStyle>
        <color>4db0279c</color>
        <fill>1</fill>
        <outline>1</outline>
      </PolyStyle>
    </Style>
    <Style id="poly-9C27B0-2000-77-highlight">
      <LineStyle>
        <color>ffb0279c</color>
        <width>3</width>
      </LineStyle>
      <PolyStyle>
        <color>4db0279c</color>
        <fill>1</fill>
        <outline>1</outline>
      </PolyStyle>
    </Style>
    <StyleMap id="poly-9C27B0-2000-77">
      <Pair>
        <key>normal</key>
        <styleUrl>#poly-9C27B0-2000-77-normal</styleUrl>
      </Pair>
      <Pair>
        <key>highlight</key>
        <styleUrl>#poly-9C27B0-2000-77-highlight</styleUrl>
      </Pair>
    </StyleMap>
    <Style id="poly-E65100-2000-77-nodesc-normal">
      <LineStyle>
        <color>ff0051e6</color>
        <width>2</width>
      </LineStyle>
      <PolyStyle>
        <color>4d0051e6</color>
        <fill>1</fill>
        <outline>1</outline>
      </PolyStyle>
      <BalloonStyle>
        <text><![CDATA[<h3>$[name]</h3>]]></text>
      </BalloonStyle>
    </Style>
    <Style id="poly-E65100-2000-77-nodesc-highlight">
      <LineStyle>
        <color>ff0051e6</color>
        <width>3</width>
      </LineStyle>
      <PolyStyle>
        <color>4d0051e6</color>
        <fill>1</fill>
        <outline>1</outline>
      </PolyStyle>
      <BalloonStyle>
        <text><![CDATA[<h3>$[name]</h3>]]></text>
      </BalloonStyle>
    </Style>
    <StyleMap id="poly-E65100-2000-77-nodesc">
      <Pair>
        <key>normal</key>
        <styleUrl>#poly-E65100-2000-77-nodesc-normal</styleUrl>
      </Pair>
      <Pair>
        <key>highlight</key>
        <styleUrl>#poly-E65100-2000-77-nodesc-highlight</styleUrl>
      </Pair>
    </StyleMap>
    <Style id="poly-F57C00-1200-77-nodesc-normal">
      <LineStyle>
        <color>ff007cf5</color>
        <width>1.2</width>
      </LineStyle>
      <PolyStyle>
        <color>4d007cf5</color>
        <fill>1</fill>
        <outline>1</outline>
      </PolyStyle>
      <BalloonStyle>
        <text><![CDATA[<h3>$[name]</h3>]]></text>
      </BalloonStyle>
    </Style>
    <Style id="poly-F57C00-1200-77-nodesc-highlight">
      <LineStyle>
        <color>ff007cf5</color>
        <width>1.8</width>
      </LineStyle>
      <PolyStyle>
        <color>4d007cf5</color>
        <fill>1</fill>
        <outline>1</outline>
      </PolyStyle>
      <BalloonStyle>
        <text><![CDATA[<h3>$[name]</h3>]]></text>
      </BalloonStyle>
    </Style>
    <StyleMap id="poly-F57C00-1200-77-nodesc">
      <Pair>
        <key>normal</key>
        <styleUrl>#poly-F57C00-1200-77-nodesc-normal</styleUrl>
      </Pair>
      <Pair>
        <key>highlight</key>
        <styleUrl>#poly-F57C00-1200-77-nodesc-highlight</styleUrl>
      </Pair>
    </StyleMap>
    <Style id="poly-FF5252-2000-77-nodesc-normal">
      <LineStyle>
        <color>ff5252ff</color>
        <width>2</width>
      </LineStyle>
      <PolyStyle>
        <color>4d5252ff</color>
        <fill>1</fill>
        <outline>1</outline>
      </PolyStyle>
      <BalloonStyle>
        <text><![CDATA[<h3>$[name]</h3>]]></text>
      </BalloonStyle>
    </Style>
    <Style id="poly-FF5252-2000-77-nodesc-highlight">
      <LineStyle>
        <color>ff5252ff</color>
        <width>3</width>
      </LineStyle>
      <PolyStyle>
        <color>4d5252ff</color>
        <fill>1</fill>
        <outline>1</outline>
      </PolyStyle>
      <BalloonStyle>
        <text><![CDATA[<h3>$[name]</h3>]]></text>
      </BalloonStyle>
    </Style>
    <StyleMap id="poly-FF5252-2000-77-nodesc">
      <Pair>
        <key>normal</key>
        <styleUrl>#poly-FF5252-2000-77-nodesc-normal</styleUrl>
      </Pair>
      <Pair>
        <key>highlight</key>
        <styleUrl>#poly-FF5252-2000-77-nodesc-highlight</styleUrl>
      </Pair>
    </StyleMap>
    <Style id="poly-FFD600-2000-77-nodesc-normal">
      <LineStyle>
        <color>ff00d6ff</color>
        <width>2</width>
      </LineStyle>
      <PolyStyle>
        <color>4d00d6ff</color>
        <fill>1</fill>
        <outline>1</outline>
      </PolyStyle>
      <BalloonStyle>
        <text><![CDATA[<h3>$[name]</h3>]]></text>
      </BalloonStyle>
    </Style>
    <Style id="poly-FFD600-2000-77-nodesc-highlight">
      <LineStyle>
        <color>ff00d6ff</color>
        <width>3</width>
      </LineStyle>
      <PolyStyle>
        <color>4d00d6ff</color>
        <fill>1</fill>
        <outline>1</outline>
      </PolyStyle>
      <BalloonStyle>
        <text><![CDATA[<h3>$[name]</h3>]]></text>
      </BalloonStyle>
    </Style>
    <StyleMap id="poly-FFD600-2000-77-nodesc">
      <Pair>
        <key>normal</key>
        <styleUrl>#poly-FFD600-2000-77-nodesc-normal</styleUrl>
      </Pair>
      <Pair>
        <key>highlight</key>
        <styleUrl>#poly-FFD600-2000-77-nodesc-highlight</styleUrl>
      </Pair>
    </StyleMap>
    <Folder>
      <name>طبقة بلا عنوان</name>
      <Placemark>
        <name>Makkah Region ‏</name>
        <styleUrl>#poly-3949AB-2000-77-nodesc</styleUrl>
        <Polygon>
          <outerBoundaryIs>
            <LinearRing>
              <tessellate>1</tessellate>
              <coordinates>
                41.244759,23.54812,0
                39.953078,23.284188,0
                39.929301,22.916092,0
                39.905548,22.326569,0
                39.861792,21.796982,0
                39.779596,21.582633,0
                39.601844,21.464157,0
                39.617324,21.339721,0
                39.262472,21.034321,0
                39.263674,20.976859,0
                39.314906,20.912093,0
                39.340731,20.913373,0
                39.356668,20.89797,0
                39.336358,20.885131,0
                39.409685,20.824788,0
                39.416242,20.788803,0
                39.51395,20.677836,0
                39.601306,20.537197,0
                39.735448,20.384544,0
                39.94835,20.260048,0
                40.290633,20.102409,0
                40.475166,20.005621,0
                40.57489,19.817352,0
                40.6621,19.741405,0
                41.254872,18.625851,0
                41.518258,18.228466,0
                41.713528,18.627485,0
                41.903458,19.016146,0
                41.384726,19.68719,0
                41.074881,20.192246,0
                41.015699,20.518199,0
                41.100284,20.556132,0
                41.262516,20.655945,0
                41.449604,20.771028,0
                41.88664,20.654377,0
                42.231093,20.570864,0
                42.303808,20.47968,0
                42.452943,20.455246,0
                42.572237,20.47353,0
                42.713587,20.492068,0
                42.847636,20.510816,0
                42.874609,20.482963,0
                43.065717,20.538452,0
                43.238859,20.665732,0
                43.268242,20.687018,0
                43.610364,20.752682,0
                43.678532,21.376984,0
                43.454363,22.030431,0
                43.236045,22.68494,0
                42.699212,22.969384,0
                42.561474,23.159482,0
                42.247145,23.590538,0
                41.811879,23.693585,0
                41.548766,23.686498,0
                41.244759,23.54812,0
              </coordinates>
            </LinearRing>
          </outerBoundaryIs>
        </Polygon>
      </Placemark>
      <Placemark>
        <name>Dammam‏‏</name>
        <description>‏</description>
        <styleUrl>#poly-9C27B0-2000-77</styleUrl>
        <Polygon>
          <outerBoundaryIs>
            <LinearRing>
              <tessellate>1</tessellate>
              <coordinates>
                50.010072,25.982998,0
                49.996076,26.040143,0
                50.034416,26.211984,0
                50.134573,26.025148,0
                50.152326,26.031057,0
                50.15743,26.036481,0
                50.157734,26.049928,0
                50.149336,26.075212,0
                50.168505,26.113743,0
                50.16849,26.135484,0
                50.168501,26.164847,0
                50.190459,26.153633,0
                50.220691,26.177589,0
                50.226234,26.223743,0
                50.223621,26.261781,0
                50.231996,26.299811,0
                50.226615,26.339146,0
                50.240388,26.364984,0
                50.219222,26.480285,0
                50.197954,26.509525,0
                50.148402,26.448502,0
                50.13396,26.489854,0
                50.16802,26.628428,0
                50.050919,26.754818,0
                49.957884,26.841677,0
                49.861529,26.86058,0
                49.802178,26.884589,0
                49.731027,26.937846,0
                49.698273,26.977379,0
                49.692737,27.092169,0
                49.660862,27.141434,0
                49.607022,27.189141,0
                49.539743,27.219412,0
                49.678106,27.343966,0
                49.442675,27.417797,0
                49.212808,27.582774,0
                49.03211,27.562358,0
                48.96737,27.616261,0
                48.866832,27.577644,0
                48.826315,27.490787,0
                48.697673,27.471445,0
                48.564605,27.204887,0
                48.082708,26.93271,0
                46.974868,26.852526,0
                46.55601,25.925085,0
                47.081365,26.009604,0
                47.345904,26.044709,0
                47.410486,26.054347,0
                47.475147,26.063856,0
                47.610247,26.0838,0
                47.717254,25.086459,0
                49.197956,25.212141,0
                49.105752,25.175644,0
                49.128352,25.14289,0
                49.191731,25.125342,0
                49.21407,25.102705,0
                49.249961,25.075215,0
                49.309109,25.02539,0
                49.332545,25.002921,0
                49.346278,24.948146,0
                49.386057,24.915991,0
                49.524332,24.821698,0
                49.595609,24.686672,0
                49.690226,24.601404,0
                49.701186,24.496635,0
                49.690549,24.376769,0
                49.575526,24.254325,0
                49.478178,24.184519,0
                47.461487,23.594662,0
                47.395556,23.321005,0
                47.364069,23.176285,0
                47.346116,23.111645,0
                47.328866,23.043215,0
                47.058702,21.934503,0
                47.198652,21.779195,0
                47.539254,21.609525,0
                48.158237,20.690145,0
                47.987386,20.26891,0
                47.94472,20.163677,0
                47.944439,20.162976,0
                47.944121,20.162177,0
                47.94351,20.16067,0
                47.942297,20.157672,0
                47.939861,20.151666,0
                47.935021,20.139665,0
                47.925117,20.115762,0
                47.901367,20.058879,0
                47.818681,19.85001,0
                48.051916,19.480458,0
                51.043907,20.349324,0
                51.325352,20.303781,0
                51.650059,20.597949,0
                51.914993,20.959971,0
                54.950867,22.462294,0
                55.188893,22.597209,0
                55.213232,22.68722,0
                55.214588,22.692766,0
                55.213345,22.694689,0
                55.211685,22.697314,0
                55.2097,22.696975,0
                55.207547,22.700259,0
                55.206732,22.69984,0
                55.203898,22.697482,0
                55.202288,22.696198,0
                55.201,22.694755,0
                55.168273,22.658466,0
                55.136464,22.623002,0
                54.504685,22.70124,0
                53.872512,22.783964,0
                53.224774,22.862803,0
                52.901664,22.899656,0
                52.580057,22.943448,0
                52.31585,23.262018,0
                52.088257,23.529431,0
                51.840676,23.825947,0
                51.589563,24.125661,0
                51.589036,24.255716,0
                51.558978,24.2461,0
                51.53915,24.248805,0
                51.526877,24.255886,0
                51.521997,24.264832,0
                51.514372,24.275031,0
                51.498429,24.294178,0
                51.486085,24.305351,0
                51.470302,24.313083,0
                51.440324,24.322395,0
                51.422317,24.321746,0
                51.404999,24.32485,0
                51.392776,24.319886,0
                51.381239,24.312732,0
                51.36926,24.298023,0
                51.353852,24.28582,0
                51.32368,24.291034,0
                51.315493,24.293023,0
                51.305584,24.288441,0
                51.293069,24.298536,0
                51.289699,24.330031,0
                51.289324,24.344595,0
                51.301468,24.349399,0
                51.319975,24.419361,0
                51.337367,24.429505,0
                51.36669,24.444612,0
                51.380014,24.452245,0
                51.397682,24.462341,0
                51.495877,24.567331,0
                51.43784,24.61026,0
                51.404491,24.617969,0
                51.412431,24.588054,0
                51.368367,24.520622,0
                51.31891,24.480459,0
                51.097788,24.467849,0
                51.000541,24.496211,0
                50.931102,24.536596,0
                50.859383,24.667971,0
                50.815327,24.73534,0
                50.811469,24.739059,0
                50.799026,24.739041,0
                50.794477,24.738238,0
                50.790615,24.736811,0
                50.780206,24.727547,0
                50.771169,24.714382,0
                50.76361,24.732415,0
                50.763774,24.738,0
                50.762658,24.744222,0
                50.759806,24.748586,0
                50.752151,24.757318,0
                50.749194,24.768225,0
                50.7463,24.794802,0
                50.748626,24.804971,0
                50.746356,24.810992,0
                50.745908,24.814314,0
                50.740139,24.817328,0
                50.731806,24.828934,0
                50.728842,24.838164,0
                50.728734,24.843401,0
                50.730569,24.847109,0
                50.730459,24.851456,0
                50.728345,24.855188,0
                50.728297,24.865461,0
                50.718138,24.872385,0
                50.717351,24.876623,0
                50.712324,24.88108,0
                50.704207,24.884917,0
                50.694769,24.883524,0
                50.689794,24.883917,0
                50.684476,24.885245,0
                50.677055,24.898523,0
                50.673343,24.904383,0
                50.673067,24.913354,0
                50.674627,24.926928,0
                50.676004,24.929433,0
                50.672923,24.938479,0
                50.66795,24.94655,0
                50.661602,24.953689,0
                50.655085,24.965341,0
                50.650455,24.974747,0
                50.638959,24.986024,0
                50.617718,25.017696,0
                50.608623,25.034182,0
                50.590602,25.05596,0
                50.581914,25.064297,0
                50.57974,25.06392,0
                50.576156,25.060625,0
                50.577272,25.047624,0
                50.575601,25.043147,0
                50.586768,25.02628,0
                50.583856,25.026228,0
                50.580602,25.028043,0
                50.57512,25.027005,0
                50.569383,25.031386,0
                50.565704,25.033588,0
                50.562121,25.0383,0
                50.563418,25.050843,0
                50.566125,25.055092,0
                50.570741,25.058769,0
                50.569693,25.062139,0
                50.565106,25.066694,0
                50.561552,25.07467,0
                50.559372,25.085598,0
                50.55617,25.105233,0
                50.549913,25.118696,0
                50.546059,25.132157,0
                50.558131,25.142874,0
                50.559956,25.15593,0
                50.559722,25.169298,0
                50.559775,25.177033,0
                50.556735,25.181663,0
                50.553782,25.18839,0
                50.549456,25.195117,0
                50.540962,25.202942,0
                50.532637,25.210301,0
                50.525557,25.221478,0
                50.522254,25.234049,0
                50.521329,25.2436,0
                50.525899,25.254079,0
                50.533724,25.264798,0
                50.531611,25.274973,0
                50.529498,25.285147,0
                50.532431,25.292681,0
                50.529871,25.301459,0
                50.522467,25.320014,0
                50.510599,25.33888,0
                50.50921,25.351572,0
                50.505759,25.362249,0
                50.501595,25.369652,0
                50.493996,25.376437,0
                50.493908,25.394649,0
                50.488439,25.403412,0
                50.47988,25.412178,0
                50.458636,25.42847,0
                50.449298,25.436617,0
                50.4345,25.438526,0
                50.428627,25.440739,0
                50.416197,25.452768,0
                50.404107,25.464795,0
                50.39603,25.484198,0
                50.395494,25.491818,0
                50.38309,25.506448,0
                50.377662,25.498442,0
                50.369288,25.498471,0
                50.362973,25.497879,0
                50.366203,25.489145,0
                50.374681,25.482604,0
                50.381782,25.471414,0
                50.38068,25.451782,0
                50.382851,25.442065,0
                50.37227,25.443569,0
                50.362216,25.461348,0
                50.341618,25.554959,0
                50.268901,25.622353,0
                50.266708,25.652169,0
                50.263469,25.666202,0
                50.24489,25.677895,0
                50.235235,25.690818,0
                50.227573,25.722268,0
                50.220408,25.739026,0
                50.212766,25.747272,0
                50.189851,25.754911,0
                50.106763,25.891607,0
                50.10744,25.912044,0
                50.115935,25.922403,0
                50.133523,25.925655,0
                50.1162,25.945923,0
                50.120406,25.961462,0
                50.109794,25.975237,0
                50.104485,25.980889,0
                50.092648,25.980887,0
                50.03797,26.009874,0
                50.010072,25.982998,0
              </coordinates>
            </LinearRing>
          </outerBoundaryIs>
        </Polygon>
      </Placemark>
      <Placemark>
        <name>Jeddah‏</name>
        <styleUrl>#poly-E65100-2000-77-nodesc</styleUrl>
        <Polygon>
          <outerBoundaryIs>
            <LinearRing>
              <tessellate>1</tessellate>
              <coordinates>
                39.262472,21.034321,0
                39.617324,21.339721,0
                39.601844,21.464157,0
                39.779596,21.582633,0
                39.85642,21.781621,0
                39.890752,22.152235,0
                39.91191,22.51026,0
                39.953078,23.284188,0
                39.900365,23.361603,0
                38.740827,23.193303,0
                38.785372,23.035403,0
                39.054418,22.57134,0
                39.087377,22.386073,0
                39.112096,22.345434,0
                38.942495,22.028804,0
                38.929596,21.994561,0
                38.948552,21.90932,0
                39.115529,21.539759,0
                39.189,21.384474,0
                39.104543,21.326919,0
                39.104083,21.300802,0
                39.168132,21.158223,0
                39.17937,21.129333,0
                39.19043,21.101243,0
                39.262472,21.034321,0
              </coordinates>
            </LinearRing>
          </outerBoundaryIs>
        </Polygon>
      </Placemark>
      <Placemark>
        <name>Tabuk</name>
        <styleUrl>#poly-000000-2000-77-nodesc</styleUrl>
        <Polygon>
          <outerBoundaryIs>
            <LinearRing>
              <tessellate>1</tessellate>
              <coordinates>
                37.142826,25.27965,0
                37.74141,25.527402,0
                37.715213,25.583682,0
                37.810869,25.630578,0
                37.823465,25.724292,0
                37.699903,25.758286,0
                37.515781,25.888005,0
                37.552867,25.97362,0
                37.499066,26.066627,0
                37.378052,26.153913,0
                37.341885,26.343241,0
                37.506051,26.574209,0
                37.890157,26.689119,0
                37.86423,26.766112,0
                37.923365,26.843199,0
                38.0464,26.751924,0
                38.210118,26.761507,0
                38.280889,26.803094,0
                38.351656,26.780887,0
                38.409344,26.817657,0
                38.580963,26.859175,0
                38.750514,26.828994,0
                38.889733,26.833139,0
                38.907148,26.876792,0
                38.998052,26.879829,0
                39.081411,26.96861,0
                39.06617,27.705138,0
                39.100483,28.305448,0
                39.266228,28.390159,0
                39.45863,28.540278,0
                40.316432,28.663341,0
                37.599685,30.204659,0
                37.500641,30.001583,0
                37.392169,29.980361,0
                36.753417,29.868332,0
                36.50365,29.498628,0
                36.07029,29.18491,0
                35.513422,29.274004,0
                34.954577,29.358086,0
                34.848358,29.029234,0
                34.782553,28.67329,0
                34.807909,28.524915,0
                34.668172,28.25871,0
                34.568283,28.100139,0
                34.635974,28.002128,0
                35.031633,28.054228,0
                35.169118,28.003987,0
                35.524843,27.601499,0
                35.539686,27.515824,0
                35.748882,27.104493,0
                36.005145,26.888236,0
                36.511905,26.109568,0
                36.478196,25.616796,0
                36.896036,25.350426,0
                37.142826,25.27965,0
              </coordinates>
            </LinearRing>
          </outerBoundaryIs>
        </Polygon>
      </Placemark>
      <Placemark>
        <name>Haf albatin‏‏</name>
        <styleUrl>#poly-000000-2000-77-nodesc</styleUrl>
        <Polygon>
          <outerBoundaryIs>
            <LinearRing>
              <tessellate>1</tessellate>
              <coordinates>
                48.431841,28.533381,0
                47.706746,28.524727,0
                47.71024,28.543476,0
                47.652262,28.598075,0
                47.636703,28.630663,0
                47.606016,28.655317,0
                47.595686,28.689182,0
                47.59321,28.727332,0
                47.601716,28.758035,0
                47.588116,28.836084,0
                47.566152,28.861423,0
                47.543746,28.898257,0
                47.513103,28.931703,0
                47.496797,28.967594,0
                47.466064,28.99986,0
                46.555793,29.101725,0
                46.42668,29.064116,0
                46.232305,29.080117,0
                46.040591,29.093448,0
                45.831015,29.108616,0
                45.604201,29.131247,0
                44.716664,29.198903,0
                44.153,29.621802,0
                43.550348,30.064524,0
                42.351292,30.922152,0
                42.454341,30.243685,0
                41.140342,29.289568,0
                42.313382,28.481916,0
                43.232934,28.302666,0
                43.782224,28.708138,0
                44.67985,28.023941,0
                44.787439,27.720744,0
                45.235741,27.692834,0
                45.678045,27.679357,0
                46.974868,26.852526,0
                48.082708,26.93271,0
                48.564605,27.204887,0
                48.697673,27.471445,0
                48.826315,27.490787,0
                48.866832,27.577644,0
                48.96737,27.616261,0
                48.65958,28.141399,0
                48.664709,28.211024,0
                48.627413,28.271286,0
                48.585362,28.295387,0
                48.55881,28.35096,0
                48.560611,28.36788,0
                48.547779,28.407762,0
                48.545472,28.457308,0
                48.499662,28.494755,0
                48.431841,28.533381,0
              </coordinates>
            </LinearRing>
          </outerBoundaryIs>
        </Polygon>
      </Placemark>
      <Placemark>
        <name>Sakkakh</name>
        <styleUrl>#poly-FF5252-2000-77-nodesc</styleUrl>
        <Polygon>
          <outerBoundaryIs>
            <LinearRing>
              <tessellate>1</tessellate>
              <coordinates>
                40.316432,28.663341,0
                41.140342,29.289568,0
                42.454341,30.243685,0
                42.351292,30.922152,0
                42.083789,31.10866,0
                41.471843,31.365087,0
                40.415244,31.946834,0
                39.201084,32.154456,0
                39.191283,32.147217,0
                39.16415,32.127767,0
                39.151001,32.117283,0
                38.995781,31.996481,0
                37.001099,31.500142,0
                37.063184,31.438968,0
                37.123734,31.379376,0
                37.24409,31.26055,0
                37.483983,31.022421,0
                37.615474,30.89574,0
                37.745411,30.765538,0
                37.771017,30.732413,0
                37.805528,30.697805,0
                37.869336,30.632108,0
                37.997037,30.500919,0
                37.827883,30.416101,0
                37.665893,30.332553,0
                37.599685,30.204659,0
                40.316432,28.663341,0
              </coordinates>
            </LinearRing>
          </outerBoundaryIs>
        </Polygon>
      </Placemark>
      <Placemark>
        <name>Mohammed Elemam</name>
        <styleUrl>#icon-1899-0288D1-nodesc</styleUrl>
        <Point>
          <coordinates>
            42.55048,16.93179,0
          </coordinates>
        </Point>
      </Placemark>
      <Placemark>
        <name>Ahmed Tawhari</name>
        <styleUrl>#icon-1899-0288D1-nodesc</styleUrl>
        <Point>
          <coordinates>
            42.639899,17.073933,0
          </coordinates>
        </Point>
      </Placemark>
      <Placemark>
        <name>Hossam Khaled</name>
        <styleUrl>#icon-1899-0288D1-nodesc</styleUrl>
        <Point>
          <coordinates>
            42.74654,18.29547,0
          </coordinates>
        </Point>
      </Placemark>
      <Placemark>
        <name>Mohamed Abbas</name>
        <styleUrl>#icon-1899-0288D1-nodesc</styleUrl>
        <Point>
          <coordinates>
            42.73137,18.30105,0
          </coordinates>
        </Point>
      </Placemark>
      <Placemark>
        <name>Murad Alzahrani</name>
        <styleUrl>#icon-1899-0288D1-nodesc</styleUrl>
        <Point>
          <coordinates>
            41.39926,20.02298,0
          </coordinates>
        </Point>
      </Placemark>
      <Placemark>
        <name>Ahmed Eldmery</name>
        <styleUrl>#icon-1899-0288D1-nodesc</styleUrl>
        <Point>
          <coordinates>
            40.40714,21.30661,0
          </coordinates>
        </Point>
      </Placemark>
      <Placemark>
        <name>Rakan Aseeri</name>
        <styleUrl>#icon-1899-0288D1-nodesc</styleUrl>
        <Point>
          <coordinates>
            39.225363,21.522555,0
          </coordinates>
        </Point>
      </Placemark>
      <Placemark>
        <name>Fouad Al banna</name>
        <styleUrl>#icon-1899-0288D1-nodesc</styleUrl>
        <Point>
          <coordinates>
            39.1649,21.62384,0
          </coordinates>
        </Point>
      </Placemark>
      <Placemark>
        <name>Waleed ALSURIHI</name>
        <styleUrl>#icon-1899-0288D1-nodesc</styleUrl>
        <Point>
          <coordinates>
            39.19971,21.78995,0
          </coordinates>
        </Point>
      </Placemark>
      <Placemark>
        <name>Abdullah Aldamag</name>
        <styleUrl>#icon-1899-0288D1-nodesc</styleUrl>
        <Point>
          <coordinates>
            47.38087,24.14755,0
          </coordinates>
        </Point>
      </Placemark>
      <Placemark>
        <name>Mahmoud Al Moghazi</name>
        <styleUrl>#icon-1899-0288D1-nodesc</styleUrl>
        <Point>
          <coordinates>
            39.499753,24.44144,0
          </coordinates>
        </Point>
      </Placemark>
      <Placemark>
        <name>Ahmed El Saeed</name>
        <styleUrl>#icon-1899-0288D1-nodesc</styleUrl>
        <Point>
          <coordinates>
            39.635526,24.484079,0
          </coordinates>
        </Point>
      </Placemark>
      <Placemark>
        <name>Abdulaziz Makhashen</name>
        <styleUrl>#icon-1899-0288D1-nodesc</styleUrl>
        <Point>
          <coordinates>
            46.75762,24.59464,0
          </coordinates>
        </Point>
      </Placemark>
      <Placemark>
        <name>Ali Shady</name>
        <styleUrl>#icon-1899-0288D1-nodesc</styleUrl>
        <Point>
          <coordinates>
            46.72443,24.60075,0
          </coordinates>
        </Point>
      </Placemark>
      <Placemark>
        <name>Waleed Salah</name>
        <styleUrl>#icon-1899-0288D1-nodesc</styleUrl>
        <Point>
          <coordinates>
            46.69415,24.61471,0
          </coordinates>
        </Point>
      </Placemark>
      <Placemark>
        <name>Mahmoud Hamdy</name>
        <styleUrl>#icon-1899-0288D1-nodesc</styleUrl>
        <Point>
          <coordinates>
            46.70135,24.61779,0
          </coordinates>
        </Point>
      </Placemark>
      <Placemark>
        <name>Mostafa Othman</name>
        <styleUrl>#icon-1899-0288D1-nodesc</styleUrl>
        <Point>
          <coordinates>
            46.7028,24.63153,0
          </coordinates>
        </Point>
      </Placemark>
      <Placemark>
        <name>Tawfik Abouhashesh</name>
        <styleUrl>#icon-1899-0288D1-nodesc</styleUrl>
        <Point>
          <coordinates>
            46.69336,24.63937,0
          </coordinates>
        </Point>
      </Placemark>
      <Placemark>
        <name>Ahmed Saafan</name>
        <styleUrl>#icon-1899-0288D1-nodesc</styleUrl>
        <Point>
          <coordinates>
            46.697,24.67559,0
          </coordinates>
        </Point>
      </Placemark>
      <Placemark>
        <name>Mohammed Abdulrahem</name>
        <styleUrl>#icon-1899-0288D1-nodesc</styleUrl>
        <Point>
          <coordinates>
            46.668437,24.701261,0
          </coordinates>
        </Point>
      </Placemark>
      <Placemark>
        <name>Ezzaldain Othman</name>
        <styleUrl>#icon-1899-0288D1-nodesc</styleUrl>
        <Point>
          <coordinates>
            46.79932,24.71939,0
          </coordinates>
        </Point>
      </Placemark>
      <Placemark>
        <name>Husam Adel</name>
        <styleUrl>#icon-1899-0288D1-nodesc</styleUrl>
        <Point>
          <coordinates>
            46.82308,24.73332,0
          </coordinates>
        </Point>
      </Placemark>
      <Placemark>
        <name>Mohamed Khamis</name>
        <styleUrl>#icon-1899-0288D1-nodesc</styleUrl>
        <Point>
          <coordinates>
            46.69289,24.74139,0
          </coordinates>
        </Point>
      </Placemark>
      <Placemark>
        <name>Faisal Al Ghanim</name>
        <styleUrl>#icon-1899-0288D1-nodesc</styleUrl>
        <Point>
          <coordinates>
            46.748409,24.797906,0
          </coordinates>
        </Point>
      </Placemark>
      <Placemark>
        <name>Mohamed Eldapess</name>
        <styleUrl>#icon-1899-0288D1-nodesc</styleUrl>
        <Point>
          <coordinates>
            46.84093,24.80669,0
          </coordinates>
        </Point>
      </Placemark>
      <Placemark>
        <name>Ahmed Mansy</name>
        <styleUrl>#icon-1899-0288D1-nodesc</styleUrl>
        <Point>
          <coordinates>
            46.83614,24.8487,0
          </coordinates>
        </Point>
      </Placemark>
      <Placemark>
        <name>Abdelrhman Wael</name>
        <styleUrl>#icon-1899-0288D1-nodesc</styleUrl>
        <Point>
          <coordinates>
            46.19758,25.31318,0
          </coordinates>
        </Point>
      </Placemark>
      <Placemark>
        <name>Ali Alhadi</name>
        <styleUrl>#icon-1899-0288D1-nodesc</styleUrl>
        <Point>
          <coordinates>
            49.58843,25.35037,0
          </coordinates>
        </Point>
      </Placemark>
      <Placemark>
        <name>Omar Ammar</name>
        <styleUrl>#icon-1899-0288D1-nodesc</styleUrl>
        <Point>
          <coordinates>
            49.59898,25.387928,0
          </coordinates>
        </Point>
      </Placemark>
      <Placemark>
        <name>Hussain Alsoltan</name>
        <styleUrl>#icon-1899-0288D1-nodesc</styleUrl>
        <Point>
          <coordinates>
            49.590481,25.43184,0
          </coordinates>
        </Point>
      </Placemark>
      <Placemark>
        <name>Hussain alkhulaif</name>
        <styleUrl>#icon-1899-0288D1-nodesc</styleUrl>
        <Point>
          <coordinates>
            49.608397,25.441647,0
          </coordinates>
        </Point>
      </Placemark>
      <Placemark>
        <name>Hamad Albassam</name>
        <styleUrl>#icon-1899-0288D1-nodesc</styleUrl>
        <Point>
          <coordinates>
            43.96032,26.08953,0
          </coordinates>
        </Point>
      </Placemark>
      <Placemark>
        <name>Nazmi Omar</name>
        <styleUrl>#icon-1899-0288D1-nodesc</styleUrl>
        <Point>
          <coordinates>
            43.98205,26.09172,0
          </coordinates>
        </Point>
      </Placemark>
      <Placemark>
        <name>Khalid Almana</name>
        <styleUrl>#icon-1899-0288D1-nodesc</styleUrl>
        <Point>
          <coordinates>
            43.99868,26.0932,0
          </coordinates>
        </Point>
      </Placemark>
      <Placemark>
        <name>Mohamed Elgebawy</name>
        <styleUrl>#icon-1899-0288D1-nodesc</styleUrl>
        <Point>
          <coordinates>
            50.21255,26.2933,0
          </coordinates>
        </Point>
      </Placemark>
      <Placemark>
        <name>Ahmed Alrashidi</name>
        <styleUrl>#icon-1899-0288D1-nodesc</styleUrl>
        <Point>
          <coordinates>
            43.89269,26.3588,0
          </coordinates>
        </Point>
      </Placemark>
      <Placemark>
        <name>Ahmed Farag</name>
        <styleUrl>#icon-1899-0288D1-nodesc</styleUrl>
        <Point>
          <coordinates>
            50.06035,26.40796,0
          </coordinates>
        </Point>
      </Placemark>
      <Placemark>
        <name>Amr Yasser</name>
        <styleUrl>#icon-1899-0288D1-nodesc</styleUrl>
        <Point>
          <coordinates>
            50.10219,26.43556,0
          </coordinates>
        </Point>
      </Placemark>
      <Placemark>
        <name>Ahmed Samir</name>
        <styleUrl>#icon-1899-0288D1-nodesc</styleUrl>
        <Point>
          <coordinates>
            50.08539,26.45571,0
          </coordinates>
        </Point>
      </Placemark>
      <Placemark>
        <name>Salem Abdullah Alnaam</name>
        <styleUrl>#icon-1899-0288D1-nodesc</styleUrl>
        <Point>
          <coordinates>
            41.68553,27.49513,0
          </coordinates>
        </Point>
      </Placemark>
      <Placemark>
        <name>Ibrahim Aldrsoni</name>
        <styleUrl>#icon-1899-0288D1-nodesc</styleUrl>
        <Point>
          <coordinates>
            41.708838,27.54108,0
          </coordinates>
        </Point>
      </Placemark>
      <Placemark>
        <name>Ahmed Mohamed Elzubair</name>
        <styleUrl>#icon-1899-1A237E-nodesc</styleUrl>
        <Point>
          <coordinates>
            36.576208,28.402101,0
          </coordinates>
        </Point>
      </Placemark>
      <Placemark>
        <name>Ahmed Nabil</name>
        <styleUrl>#icon-1899-0288D1-nodesc</styleUrl>
        <Point>
          <coordinates>
            48.47276,28.40891,0
          </coordinates>
        </Point>
      </Placemark>
      <Placemark>
        <name>Ahmed Gado</name>
        <styleUrl>#icon-1899-0288D1-nodesc</styleUrl>
        <Point>
          <coordinates>
            45.97513,28.41568,0
          </coordinates>
        </Point>
      </Placemark>
      <Placemark>
        <name>abdelmonaem adel Eldoder</name>
        <styleUrl>#icon-1899-0288D1-nodesc</styleUrl>
        <Point>
          <coordinates>
            40.105411,29.904966,0
          </coordinates>
        </Point>
      </Placemark>
      <Placemark>
        <name>Ahmed Alrashid</name>
        <styleUrl>#icon-1899-0288D1-nodesc</styleUrl>
        <Point>
          <coordinates>
            49.585009,25.33067,0
          </coordinates>
        </Point>
      </Placemark>
      <Placemark>
        <name>Osama Almutairi</name>
        <styleUrl>#icon-1899-0288D1-nodesc</styleUrl>
        <Point>
          <coordinates>
            39.689462,24.540078,0
          </coordinates>
        </Point>
      </Placemark>
      <Placemark>
        <name>Mohamed Alshahrani</name>
        <styleUrl>#icon-1899-0288D1-nodesc</styleUrl>
        <Point>
          <coordinates>
            42.656896,20.172699,0
          </coordinates>
        </Point>
      </Placemark>
      <Placemark>
        <name>Majed Alsharif</name>
        <styleUrl>#icon-1899-0288D1-nodesc</styleUrl>
        <Point>
          <coordinates>
            44.0545,17.439331,0
          </coordinates>
        </Point>
      </Placemark>
      <Placemark>
        <name>Ayedh Alshahrani</name>
        <styleUrl>#icon-1899-0288D1-nodesc</styleUrl>
        <Point>
          <coordinates>
            46.492297,24.643097,0
          </coordinates>
        </Point>
      </Placemark>
      <Placemark>
        <name>Madina‏‏</name>
        <styleUrl>#poly-FFD600-2000-77-nodesc</styleUrl>
        <Polygon>
          <outerBoundaryIs>
            <LinearRing>
              <tessellate>1</tessellate>
              <coordinates>
                39.900365,23.361603,0
                39.953078,23.284188,0
                41.244759,23.54812,0
                41.511601,23.669601,0
                41.548766,23.686498,0
                41.811879,23.693585,0
                41.922788,23.667574,0
                42.025748,23.643552,0
                42.247145,23.590538,0
                42.430113,23.754314,0
                42.650103,23.954519,0
                42.886363,24.163892,0
                42.628901,24.48038,0
                42.486082,24.730089,0
                42.337772,24.769996,0
                42.16749,24.745055,0
                42.100465,24.770292,0
                41.930135,24.86502,0
                41.647992,25.082517,0
                41.506577,25.191032,0
                41.364072,25.300074,0
                40.491697,25.813742,0
                39.38721,26.260324,0
                39.154771,26.559837,0
                39.038434,26.709036,0
                38.972835,26.792928,0
                38.907148,26.876792,0
                38.889733,26.833139,0
                38.750514,26.828994,0
                38.580963,26.859175,0
                38.409344,26.817657,0
                38.351656,26.780887,0
                38.280889,26.803094,0
                38.210118,26.761507,0
                38.0464,26.751924,0
                38.016369,26.771662,0
                37.986968,26.793896,0
                37.923365,26.843199,0
                37.86423,26.766112,0
                37.890157,26.689119,0
                37.506051,26.574209,0
                37.341885,26.343241,0
                37.378052,26.153913,0
                37.499066,26.066627,0
                37.526165,26.020152,0
                37.53969,25.996935,0
                37.546445,25.98534,0
                37.550214,25.978862,0
                37.552867,25.97362,0
                37.546278,25.959178,0
                37.543728,25.953302,0
                37.541214,25.947428,0
                37.535581,25.934277,0
                37.534177,25.930991,0
                37.533471,25.929348,0
                37.533128,25.928538,0
                37.532947,25.928122,0
                37.532857,25.927913,0
                37.532768,25.927705,0
                37.529958,25.921138,0
                37.515781,25.888005,0
                37.638395,25.801068,0
                37.66895,25.779371,0
                37.676514,25.773982,0
                37.680281,25.771304,0
                37.682205,25.770001,0
                37.684146,25.768716,0
                37.699903,25.758286,0
                37.823465,25.724292,0
                37.810869,25.630578,0
                37.715213,25.583682,0
                37.74141,25.527402,0
                37.674912,25.499164,0
                37.53626,25.440765,0
                37.142826,25.27965,0
                37.170564,25.240563,0
                37.243953,25.08082,0
                37.240688,25.05171,0
                37.260591,25.022814,0
                37.247057,25.020952,0
                37.25142,25.018177,0
                37.251747,25.016179,0
                37.252831,25.015684,0
                37.25603,25.007925,0
                37.252812,24.999253,0
                37.228728,24.952932,0
                37.220554,24.927336,0
                37.220101,24.91642,0
                37.236132,24.890246,0
                37.212362,24.864502,0
                37.201053,24.856161,0
                37.18394,24.853963,0
                37.138055,24.860304,0
                37.129865,24.854191,0
                37.126311,24.843092,0
                37.146598,24.811492,0
                37.167761,24.796138,0
                37.168999,24.80401,0
                37.178822,24.808923,0
                37.190989,24.814067,0
                37.197321,24.804093,0
                37.197358,24.799185,0
                37.194647,24.795212,0
                37.203213,24.783708,0
                37.181897,24.78236,0
                37.196298,24.749242,0
                37.198516,24.737281,0
                37.1961,24.728594,0
                37.23995,24.707597,0
                37.274172,24.681285,0
                37.289382,24.64519,0
                37.315492,24.629164,0
                37.319015,24.618598,0
                37.329406,24.600229,0
                37.340897,24.572797,0
                37.351904,24.56217,0
                37.358446,24.552478,0
                37.373488,24.536776,0
                37.384405,24.530443,0
                37.400599,24.49402,0
                37.432099,24.455076,0
                37.430628,24.449494,0
                37.431562,24.43516,0
                37.40722,24.436629,0
                37.394732,24.412462,0
                37.396705,24.390238,0
                37.443564,24.353296,0
                37.472359,24.306924,0
                37.491981,24.290418,0
                37.502329,24.284239,0
                37.521568,24.269215,0
                37.545098,24.267336,0
                37.564676,24.270155,0
                37.574487,24.24668,0
                37.621048,24.250118,0
                37.617692,24.291413,0
                37.644974,24.286988,0
                37.650453,24.288462,0
                37.655586,24.292748,0
                37.665357,24.303126,0
                37.670554,24.297056,0
                37.683304,24.298184,0
                37.688976,24.281404,0
                37.695156,24.277924,0
                37.713009,24.278201,0
                37.719011,24.261135,0
                37.727731,24.25767,0
                37.746056,24.235734,0
                37.751782,24.228992,0
                37.757508,24.22632,0
                37.781494,24.211664,0
                37.798358,24.196902,0
                37.818981,24.176748,0
                37.831526,24.171771,0
                37.84793,24.156912,0
                37.864851,24.151443,0
                37.92613,24.146195,0
                37.989648,24.102575,0
                38.009786,24.090663,0
                38.025522,24.079378,0
                38.047088,24.069031,0
                38.066466,24.059715,0
                38.119502,24.022046,0
                38.155404,23.999825,0
                38.182388,23.975463,0
                38.218288,23.95141,0
                38.248676,23.937307,0
                38.268004,23.929449,0
                38.281346,23.916571,0
                38.306874,23.905576,0
                38.338121,23.885556,0
                38.352445,23.871369,0
                38.371491,23.83108,0
                38.400579,23.809771,0
                38.432087,23.765543,0
                38.437793,23.735435,0
                38.458603,23.690239,0
                38.488741,23.643063,0
                38.511617,23.604563,0
                38.514883,23.561998,0
                38.53771,23.548704,0
                38.567226,23.527909,0
                38.608053,23.527372,0
                38.626575,23.441886,0
                38.631417,23.404812,0
                38.637912,23.369991,0
                38.651783,23.359752,0
                38.65895,23.348049,0
                38.654101,23.322788,0
                38.679592,23.273688,0
                38.715629,23.217327,0
                38.740827,23.193303,0
                39.900365,23.361603,0
              </coordinates>
            </LinearRing>
          </outerBoundaryIs>
        </Polygon>
      </Placemark>
      <Placemark>
        <name>Abha</name>
        <styleUrl>#poly-000000-1200-77-nodesc</styleUrl>
        <Polygon>
          <outerBoundaryIs>
            <LinearRing>
              <tessellate>1</tessellate>
              <coordinates>
                41.449604,20.771028,0
                41.015699,20.518199,0
                41.074881,20.192246,0
                41.3753276,19.7029591,0
                41.903458,19.016146,0
                41.518258,18.228466,0
                42.7717599,16.4031784,0
                42.9454812,16.490107,0
                43.1391152,16.6599002,0
                43.1391152,16.9123367,0
                43.1480416,17.1742761,0
                43.2359322,17.4836617,0
                43.296357,17.528191,0
                43.4309395,17.5700911,0
                43.7934884,17.3762224,0
                44.0159615,17.4024329,0
                44.4718941,17.436501,0
                45.2107247,17.4391214,0
                45.4048319,17.3357873,0
                46.0894674,17.2523912,0
                46.3653047,17.2347529,0
                46.7433175,17.2818335,0
                47.6084908,17.4574628,0
                48.1797799,18.1647982,0
                49.1218575,18.6169904,0
                50.792878,18.7889113,0
                52.0030221,19.0017755,0
                53.5047985,19.5089431,0
                54.9981698,20.0011209,0
                55.6669625,21.999743,0
                55.213232,22.68722,0
                55.188893,22.597209,0
                51.914993,20.959971,0
                51.650059,20.597949,0
                51.325352,20.303781,0
                51.043907,20.349324,0
                48.051916,19.480458,0
                45.166617,19.45114,0
                44.885504,19.571307,0
                43.696012,20.472366,0
                43.297031,20.607143,0
                43.268242,20.687018,0
                43.065717,20.538452,0
                42.874609,20.482963,0
                42.452943,20.455246,0
                42.303808,20.47968,0
                42.231093,20.570864,0
                41.449604,20.771028,0
              </coordinates>
            </LinearRing>
          </outerBoundaryIs>
        </Polygon>
      </Placemark>
      <Placemark>
        <name>Burydah‏‏</name>
        <styleUrl>#poly-7CB342-2000-77-nodesc</styleUrl>
        <Polygon>
          <outerBoundaryIs>
            <LinearRing>
              <tessellate>1</tessellate>
              <coordinates>
                44.252708,24.194884,0
                44.567614,24.468766,0
                45.379637,24.409124,0
                45.214926,25.063492,0
                45.138008,25.358131,0
                45.67063,25.732787,0
                46.55601,25.925085,0
                46.974868,26.852526,0
                45.678045,27.679357,0
                45.154093,27.695216,0
                44.787439,27.720744,0
                44.67985,28.023941,0
                44.409335,28.228035,0
                43.782224,28.708138,0
                43.232934,28.302666,0
                42.313382,28.481916,0
                41.140342,29.289568,0
                40.316432,28.663341,0
                39.45863,28.540278,0
                39.266228,28.390159,0
                39.100483,28.305448,0
                39.073017,27.781866,0
                39.079976,27.375848,0
                39.081411,26.96861,0
                38.998052,26.879829,0
                38.907148,26.876792,0
                39.38721,26.260324,0
                40.559204,25.788692,0
                41.403856,25.27492,0
                41.930135,24.86502,0
                42.100465,24.770292,0
                42.16749,24.745055,0
                42.337772,24.769996,0
                42.486082,24.730089,0
                42.628901,24.48038,0
                42.886363,24.163892,0
                43.184159,24.113078,0
                43.505593,24.284534,0
                44.252708,24.194884,0
              </coordinates>
            </LinearRing>
          </outerBoundaryIs>
        </Polygon>
      </Placemark>
      <Placemark>
        <name>Riyadh</name>
        <styleUrl>#poly-F57C00-1200-77-nodesc</styleUrl>
        <Polygon>
          <outerBoundaryIs>
            <LinearRing>
              <tessellate>1</tessellate>
              <coordinates>
                42.886363,24.163892,0
                42.247145,23.590538,0
                42.699212,22.969384,0
                43.236045,22.68494,0
                43.678532,21.376984,0
                43.610364,20.752682,0
                43.238859,20.665732,0
                43.696012,20.472366,0
                44.885504,19.571307,0
                45.166617,19.45114,0
                48.051916,19.480458,0
                47.818681,19.85001,0
                48.158237,20.690145,0
                47.539254,21.609525,0
                47.198652,21.779195,0
                47.058702,21.934503,0
                47.461487,23.594662,0
                49.478178,24.184519,0
                49.690549,24.376769,0
                49.690226,24.601404,0
                49.595609,24.686672,0
                49.524332,24.821698,0
                49.332545,25.002921,0
                49.105752,25.175644,0
                49.197956,25.212141,0
                47.717254,25.086459,0
                47.610247,26.0838,0
                46.55601,25.925085,0
                45.67063,25.732787,0
                45.138008,25.358131,0
                45.379637,24.409124,0
                44.567614,24.468766,0
                44.252708,24.194884,0
                43.505593,24.284534,0
                43.184159,24.113078,0
                42.886363,24.163892,0
              </coordinates>
            </LinearRing>
          </outerBoundaryIs>
        </Polygon>
      </Placemark>
    </Folder>
    <Folder>
      <name>Untitled layer</name>
    </Folder>
  </Document>
</kml>
